1 45089U 20006AX  22365.58396122  .00007153  00000-0  49846-3 0  9998
2 45089  53.0545  72.5851 0001566  65.8357 294.2795 15.06412396161575
1 45089U 20006AX  23001.57917490 -.00001983  00000-0 -11426-3 0  9992
2 45089  53.0564  68.1183 0001620  63.8001 296.3154 15.06389873161711
1 45089U 20006AX  23001.91090975 -.00001455  00000-0 -78788-4 0  9999
2 45089  53.0553  66.6288 0001628  66.1100 294.0060 15.06392425161776
1 45089U 20006AX  23002.57437696  .00001753  00000-0  13659-3 0  9991
2 45089  53.0552  63.6504 0001616  64.3070 295.8085 15.06397979161872
1 45089U 20006AX  23003.56958610  .00003161  00000-0  23107-3 0  9999
2 45089  53.0553  59.1832 0001656  63.9839 296.1321 15.06395263162028
1 45089U 20006AX  23004.43208827  .00005926  00000-0  41625-3 0  9990
2 45089  53.0551  55.3114 0001645  63.3601 296.7557 15.06412102162159
1 45089U 20006AX  23004.83017163  .00000320  00000-0  40390-4 0  9997
2 45089  53.0550  53.5248 0001574  62.0152 298.0996 15.06399163162214
1 45089U 20006AX  23005.55997866  .00004608  00000-0  32789-3 0  9999
2 45089  53.0553  50.2487 0001581  58.5337 301.5806 15.06413874162327
1 45089U 20006AX  23006.55519507  .00003346  00000-0  24357-3 0  9992
2 45089  53.0560  45.7802 0001438  69.9605 290.1539 15.06377867162473
1 45089U 20006AX  23007.21865171  .00000443  00000-0  48666-4 0  9992
2 45089  53.0561  42.8015 0001539  62.5556 297.5590 15.06402576162579
1 45089U 20006AX  23007.81577793 -.00000847  00000-0 -37985-4 0  9990
2 45089  53.0554  40.1218 0001523  61.4343 298.6799 15.06395706162661
1 45089U 20006AX  23008.54558691  .00002169  00000-0  16445-3 0  9991
2 45089  53.0556  36.8452 0001561  61.9278 298.1869 15.06398722162775
1 45089U 20006AX  23009.54079386 -.00000106  00000-0  11764-4 0  9991
2 45089  53.0561  32.3774 0001621  62.0853 298.0300 15.06399277162929
1 45089U 20006AX  23010.33695758  .00000337  00000-0  41547-4 0  9994
2 45089  53.0558  28.8038 0001618  58.9693 301.1454 15.06398689163046
1 45089U 20006AX  23010.73504535 -.00000576  00000-0 -19789-4 0  9990
2 45089  53.0555  27.0168 0001610  55.8573 304.2569 15.06392194163106
1 45089U 20006AX  23011.26581853  .00000199  00000-0  32235-4 0  9997
2 45089  53.0554  24.6336 0001640  58.4283 301.6866 15.06395752163187
1 45089U 20006AX  23011.73023869  .00001854  00000-0  14334-3 0  9995
2 45089  53.0555  22.5487 0001640  60.5159 299.5993 15.06402833163251
1 45089U 20006AX  23012.72546107 -.00000889  00000-0 -40792-4 0  9997
2 45089  53.0559  18.0817 0001535  61.1597 298.9545 15.06380460163402
1 45089U 20006AX  23013.32257699 -.00000026  00000-0  17188-4 0  9994
2 45089  53.0561  15.4005 0001532  66.5801 293.5348 15.06393690163499
1 45089U 20006AX  23015.37933259  .00003028  00000-0  22210-3 0  9999
2 45089  53.0539   6.1676 0001592  71.0341 289.0821 15.06400851163800
1 45089U 20006AX  23016.44087339  .00006839  00000-0  47736-3 0  9990
2 45089  53.0540   1.4013 0001515  82.6720 277.4441 15.06419031163965
1 45089U 20006AX  23017.36974348 -.00001151  00000-0 -58415-4 0  9998
2 45089  53.0533 357.2322 0001484  94.8631 265.2527 15.06390750164106
1 45089U 20006AX  23017.90052126  .00001695  00000-0  13268-3 0  9996
2 45089  53.0538 354.8493 0001427  98.2032 261.9119 15.06391887164183
1 45089U 20006AX  23018.36495059  .00013838  00000-0  94589-3 0  9990
2 45089  53.0537 352.7643 0001413 102.0313 258.0834 15.06406617164254
1 45089U 20006AX  23019.29378611  .00017451  00000-0  11861-2 0  9993
2 45089  53.0528 348.5938 0001351 102.0612 258.0528 15.06444705164392
1 45089U 20006AX  23020.28901024  .00018648  00000-0  12682-2 0  9995
2 45089  53.0530 344.1264 0001742 107.8095 252.3084 15.06379361164547
1 45089U 20006AX  23025.53041251  .00001930  00000-0  14843-3 0  9993
2 45089  53.0537 320.5966 0001243  77.4759 282.6369 15.06403179165331
1 45089U 20006AX  23026.12753752 -.00000042  00000-0  16081-4 0  9996
2 45089  53.0538 317.9173 0001196  82.1234 277.9891 15.06398269165420
1 45089U 20006AX  23027.18908359  .00003984  00000-0  28617-3 0  9992
2 45089  53.0526 313.1496 0000981  83.1633 276.9468 15.06406373165579
1 45089U 20006AX  23028.18429225  .00001580  00000-0  12493-3 0  9998
2 45089  53.0532 308.6815 0001097  82.9377 277.1737 15.06397703165726
1 45089U 20006AX  23028.91410463 -.00000155  00000-0  84706-5 0  9999
2 45089  53.0526 305.4056 0001067  81.3198 278.7911 15.06404902165846
1 45089U 20006AX  23029.77661745  .00001161  00000-0  96838-4 0  9990
2 45089  53.0531 301.5331 0001282  88.7691 271.3444 15.06395725165979
1 45089U 20006AX  23030.17469802  .00000896  00000-0  79020-4 0  9994
2 45089  53.0530 299.7462 0001282  88.0685 272.0451 15.06397037166039
1 45089U 20006AX  23030.90451295 -.00000282  00000-0 -42702-7 0  9993
2 45089  53.0531 296.4699 0001274  88.3544 271.7591 15.06397561166149
1 45089U 20006AX  23031.16990046  .00000804  00000-0  72832-4 0  9996
2 45089  53.0533 295.2785 0001135  92.2790 267.8329 15.06400913166182
1 45089U 20006AX  23031.76702452  .00000845  00000-0  75629-4 0  9996
2 45089  53.0533 292.5980 0001162  94.4415 265.6706 15.06397345166276
